{"type": "FeatureCollection", "features": [ {"type": "Feature", "properties": {"norad_id": 66816, "name": "STARLINK-36098", "group": "last-30-days", "lat": 26.243747749539114, "lon": 14.09250695171853, "alt_km": 344.7843523557058, "timestamp": "2025-12-16T23:36:34.924313+00:00", "meta": {"OBJECT_NAME": "STARLINK-36098", "OBJECT_ID": "2025-278AB", "EPOCH": "2025-12-16T06:00:02.999808", "MEAN_MOTION": 15.76589994, "ECCENTRICITY": 0.00018733, "INCLINATION": 42.9987, "RA_OF_ASC_NODE": 230.4908, "ARG_OF_PERICENTER": 283.5972, "MEAN_ANOMALY": 9.9782, "EPHEMERIS_TYPE": 0, "CLASSIFICATION_TYPE": "U", "NORAD_CAT_ID": 66816, "ELEMENT_SET_NO": 999, "REV_AT_EPOCH": 336, "BSTAR": -0.011272118, "MEAN_MOTION_DOT": -0.01646598, "MEAN_MOTION_DDOT": 0}, "tle": {"line1": "1 66816U 25278AB  25350.25003472 -.01646598  00000+0 -11272-1 0  9993", "line2": "2 66816  42.9987 230.4908 0001873 283.5972   9.9782 15.76589994  3369"}}, "geometry": {"type": "Point", "coordinates": [14.09250695171853, 26.243747749539114]}}, {"type": "Feature", "properties": {"norad_id": 66817, "name": "STARLINK-35995", "group": "last-30-days", "lat": 24.067204413330405, "lon": 17.385836639638242, "alt_km": 345.16287116765216, "timestamp": "2025-12-16T23:36:34.924324+00:00", "meta": {"OBJECT_NAME": "STARLINK-35995", "OBJECT_ID": "2025-278AC", "EPOCH": "2025-12-16T06:00:02.999808", "MEAN_MOTION": 15.76282023, "ECCENTRICITY": 0.00020218, "INCLINATION": 42.9987, "RA_OF_ASC_NODE": 230.4801, "ARG_OF_PERICENTER": 280.0093, "MEAN_ANOMALY": 17.7139, "EPHEMERIS_TYPE": 0, "CLASSIFICATION_TYPE": "U", "NORAD_CAT_ID": 66817, "ELEMENT_SET_NO": 999, "REV_AT_EPOCH": 352, "BSTAR": -0.010174924, "MEAN_MOTION_DOT": -0.01458293, "MEAN_MOTION_DDOT": 0}, "tle": {"line1": "1 66817U 25278AC  25350.25003472 -.01458293  00000+0 -10175-1 0  9998", "line2": "2 66817  42.9987 230.4801 0002021 280.0093  17.7139 15.76282023  3528"}}, "geometry": {"type": "Point", "coordinates": [17.385836639638242, 24.067204413330405]}}, {"type": "Feature", "properties": {"norad_id": 66818, "name": "STARLINK-35994", "group": "last-30-days", "lat": 25.1445299006726, "lon": 15.784483206535443, "alt_km": 344.29133839587394, "timestamp": "2025-12-16T23:36:34.924336+00:00", "meta": {"OBJECT_NAME": "STARLINK-35994", "OBJECT_ID": "2025-278AD", "EPOCH": "2025-12-16T06:00:02.999808", "MEAN_MOTION": 15.76344035, "ECCENTRICITY": 0.0001651, "INCLINATION": 42.9987, "RA_OF_ASC_NODE": 230.4855, "ARG_OF_PERICENTER": 266.3514, "MEAN_ANOMALY": 29.3664, "EPHEMERIS_TYPE": 0, "CLASSIFICATION_TYPE": "U", "NORAD_CAT_ID": 66818, "ELEMENT_SET_NO": 999, "REV_AT_EPOCH": 352, "BSTAR": -0.010046389, "MEAN_MOTION_DOT": -0.01445305, "MEAN_MOTION_DDOT": 0}, "tle": {"line1": "1 66818U 25278AD  25350.25003472 -.01445305  00000+0 -10046-1 0  9996", "line2": "2 66818  42.9987 230.4855 0001651 266.3514  29.3664 15.76344035  3525"}}, "geometry": {"type": "Point", "coordinates": [15.784483206535443, 25.1445299006726]}}, {"type": "Feature", "properties": {"norad_id": 66819, "name": "STARLINK-35989", "group": "last-30-days", "lat": 22.87123518070932, "lon": 19.105033142283, "alt_km": 344.7700372385443, "timestamp": "2025-12-16T23:36:34.924347+00:00", "meta": {"OBJECT_NAME": "STARLINK-35989", "OBJECT_ID": "2025-278AE", "EPOCH": "2025-12-16T06:00:02.999808", "MEAN_MOTION": 15.76156978, "ECCENTRICITY": 0.0001696, "INCLINATION": 42.9988, "RA_OF_ASC_NODE": 230.4748, "ARG_OF_PERICENTER": 275.6427, "MEAN_ANOMALY": 24.1002, "EPHEMERIS_TYPE": 0, "CLASSIFICATION_TYPE": "U", "NORAD_CAT_ID": 66819, "ELEMENT_SET_NO": 999, "REV_AT_EPOCH": 352, "BSTAR": -0.0092353579, "MEAN_MOTION_DOT": -0.0133124, "MEAN_MOTION_DDOT": 0}, "tle": {"line1": "1 66819U 25278AE  25350.25003472 -.01331240  00000+0 -92354-2 0  9992", "line2": "2 66819  42.9988 230.4748 0001696 275.6427  24.1002 15.76156978  3529"}}, "geometry": {"type": "Point", "coordinates": [19.105033142283, 22.87123518070932]}}, {"type": "Feature", "properties": {"norad_id": 66820, "name": "KOMPSAT-7", "group": "last-30-days", "lat": -12.834237583996664, "lon": 115.01402682425865, "alt_km": 568.808159905806, "timestamp": "2025-12-16T23:36:34.924357+00:00", "meta": {"OBJECT_NAME": "KOMPSAT-7", "OBJECT_ID": "2025-279A", "EPOCH": "2025-12-14T22:41:19.689792", "MEAN_MOTION": 14.98965885, "ECCENTRICITY": 0.00087651, "INCLINATION": 97.6417, "RA_OF_ASC_NODE": 294.7686, "ARG_OF_PERICENTER": 217.2843, "MEAN_ANOMALY": 142.7773, "EPHEMERIS_TYPE": 0, "CLASSIFICATION_TYPE": "U", "NORAD_CAT_ID": 66820, "ELEMENT_SET_NO": 999, "REV_AT_EPOCH": 198, "BSTAR": 0.00023616624, "MEAN_MOTION_DOT": 2.802e-05, "MEAN_MOTION_DDOT": 0}, "tle": {"line1": "1 66820U 25279A   25348.94536678  .00002802  00000+0  23617-3 0  9990", "line2": "2 66820  97.6417 294.7686 0008765 217.2843 142.7773 14.98965885  1985"}}, "geometry": {"type": "Point", "coordinates": [115.01402682425865, -12.834237583996664]}}, {"type": "Feature", "properties": {"norad_id": 66821, "name": "STARLINK-35966", "group": "last-30-days", "lat": -69.06437754832363, "lon": 79.06253702093414, "alt_km": 379.209851404089, "timestamp": "2025-12-16T23:36:34.924368+00:00", "meta": {"OBJECT_NAME": "STARLINK-35966", "OBJECT_ID": "2025-280A", "EPOCH": "2025-12-16T06:00:02.999808", "MEAN_MOTION": 15.67481007, "ECCENTRICITY": 0.0003857, "INCLINATION": 69.9985, "RA_OF_ASC_NODE": 188.9107, "ARG_OF_PERICENTER": 272.7794, "MEAN_ANOMALY": 176.0843, "EPHEMERIS_TYPE": 0, "CLASSIFICATION_TYPE": "U", "NORAD_CAT_ID": 66821, "ELEMENT_SET_NO": 999, "REV_AT_EPOCH": 346, "BSTAR": -0.0204119, "MEAN_MOTION_DOT": -0.01963977, "MEAN_MOTION_DDOT": 0}, "tle": {"line1": "1 66821U 25280A   25350.25003472 -.01963977  00000+0 -20412-1 0  9991", "line2": "2 66821  69.9985 188.9107 0003857 272.7794 176.0843 15.67481007  3467"}}, "geometry": {"type": "Point", "coordinates": [79.06253702093414, -69.06437754832363]}}, {"type": "Feature", "properties": {"norad_id": 66822, "name": "STARLINK-35958", "group": "last-30-days", "lat": -69.5368444425299, "lon": 84.3278896369632, "alt_km": 379.29214992054585, "timestamp": "2025-12-16T23:36:34.924378+00:00", "meta": {"OBJECT_NAME": "STARLINK-35958", "OBJECT_ID": "2025-280B", "EPOCH": "2025-12-16T06:00:02.999808", "MEAN_MOTION": 15.67482958, "ECCENTRICITY": 0.0003714, "INCLINATION": 69.9986, "RA_OF_ASC_NODE": 188.9091, "ARG_OF_PERICENTER": 273.0159, "MEAN_ANOMALY": 177.7617, "EPHEMERIS_TYPE": 0, "CLASSIFICATION_TYPE": "U", "NORAD_CAT_ID": 66822, "ELEMENT_SET_NO": 999, "REV_AT_EPOCH": 346, "BSTAR": -0.020390148, "MEAN_MOTION_DOT": -0.01962123, "MEAN_MOTION_DDOT": 0}, "tle": {"line1": "1 66822U 25280B   25350.25003472 -.01962123  00000+0 -20390-1 0  9999", "line2": "2 66822  69.9986 188.9091 0003714 273.0159 177.7617 15.67482958  3465"}}, "geometry": {"type": "Point", "coordinates": [84.3278896369632, -69.5368444425299]}}, {"type": "Feature", "properties": {"norad_id": 66823, "name": "STARLINK-35957", "group": "last-30-days", "lat": -69.84305076095869, "lon": 89.75364691477853, "alt_km": 379.3301841873017, "timestamp": "2025-12-16T23:36:34.924390+00:00", "meta": {"OBJECT_NAME": "STARLINK-35957", "OBJECT_ID": "2025-280C", "EPOCH": "2025-12-16T06:00:02.999808", "MEAN_MOTION": 15.6748192, "ECCENTRICITY": 0.00036786, "INCLINATION": 69.9988, "RA_OF_ASC_NODE": 188.9067, "ARG_OF_PERICENTER": 273.7461, "MEAN_ANOMALY": 178.9517, "EPHEMERIS_TYPE": 0, "CLASSIFICATION_TYPE": "U", "NORAD_CAT_ID": 66823, "ELEMENT_SET_NO": 999, "REV_AT_EPOCH": 346, "BSTAR": -0.020420009, "MEAN_MOTION_DOT": -0.01964553, "MEAN_MOTION_DDOT": 0}, "tle": {"line1": "1 66823U 25280C   25350.25003472 -.01964553  00000+0 -20420-1 0  9993", "line2": "2 66823  69.9988 188.9067 0003678 273.7461 178.9517 15.67481920  3463"}}, "geometry": {"type": "Point", "coordinates": [89.75364691477853, -69.84305076095869]}}, {"type": "Feature", "properties": {"norad_id": 66824, "name": "STARLINK-35896", "group": "last-30-days", "lat": -69.97821712105907, "lon": 95.2832865314595, "alt_km": 379.2596995646909, "timestamp": "2025-12-16T23:36:34.924400+00:00", "meta": {"OBJECT_NAME": "STARLINK-35896", "OBJECT_ID": "2025-280D", "EPOCH": "2025-12-16T06:00:02.999808", "MEAN_MOTION": 15.67486218, "ECCENTRICITY": 0.00038022, "INCLINATION": 69.9985, "RA_OF_ASC_NODE": 188.9045, "ARG_OF_PERICENTER": 273.8647, "MEAN_ANOMALY": 180.7465, "EPHEMERIS_TYPE": 0, "CLASSIFICATION_TYPE": "U", "NORAD_CAT_ID": 66824, "ELEMENT_SET_NO": 999, "REV_AT_EPOCH": 346, "BSTAR": -0.020504559, "MEAN_MOTION_DOT": -0.01972168, "MEAN_MOTION_DDOT": 0}, "tle": {"line1": "1 66824U 25280D   25350.25003472 -.01972168  00000+0 -20505-1 0  9999", "line2": "2 66824  69.9985 188.9045 0003802 273.8647 180.7465 15.67486218  3461"}}, "geometry": {"type": "Point", "coordinates": [95.2832865314595, -69.97821712105907]}}, {"type": "Feature", "properties": {"norad_id": 66825, "name": "STARLINK-35476", "group": "last-30-days", "lat": -69.93902862356107, "lon": 100.90735987239302, "alt_km": 379.24372800416313, "timestamp": "2025-12-16T23:36:34.924411+00:00", "meta": {"OBJECT_NAME": "STARLINK-35476", "OBJECT_ID": "2025-280E", "EPOCH": "2025-12-16T06:00:02.999808", "MEAN_MOTION": 15.67479511, "ECCENTRICITY": 0.00037546, "INCLINATION": 69.9986, "RA_OF_ASC_NODE": 188.9019, "ARG_OF_PERICENTER": 275.5651, "MEAN_ANOMALY": 180.9641, "EPHEMERIS_TYPE": 0, "CLASSIFICATION_TYPE": "U", "NORAD_CAT_ID": 66825, "ELEMENT_SET_NO": 999, "REV_AT_EPOCH": 331, "BSTAR": -0.02034508, "MEAN_MOTION_DOT": -0.01958084, "MEAN_MOTION_DDOT": 0}, "tle": {"line1": "1 66825U 25280E   25350.25003472 -.01958084  00000+0 -20345-1 0  9993", "line2": "2 66825  69.9986 188.9019 0003754 275.5651 180.9641 15.67479511  3314"}}, "geometry": {"type": "Point", "coordinates": [100.90735987239302, -69.93902862356107]}}]}